{
  "type": "FeatureCollection",
  "features": [
    {
      "type": "Feature",
      "properties": {
        "norad_id": 34540,
        "name": "IRIDIUM 33 DEB",
        "group": "iridium-33-debris",
        "lat": -46.897003262036826,
        "lon": 131.3328457262936,
        "alt_km": 646.9458266331203,
        "timestamp": "2025-12-13T05:42:57.956235+00:00",
        "meta_object_name": "IRIDIUM 33 DEB",
        "meta_object_id": "1997-051JH",
        "meta_epoch": "2025-12-12T04:20:12.306336",
        "meta_mean_motion": 14.75303898,
        "meta_eccentricity": 0.00163235,
        "meta_inclination": 86.3104,
        "meta_ra_of_asc_node": 307.8626,
        "meta_arg_of_pericenter": 161.1064,
        "meta_mean_anomaly": 212.9311,
        "meta_ephemeris_type": 0,
        "meta_classification_type": "U",
        "meta_norad_cat_id": 34540,
        "meta_element_set_no": 999,
        "meta_rev_at_epoch": 89013,
        "meta_bstar": 0.0024579152,
        "meta_mean_motion_dot": 0.00016729,
        "meta_mean_motion_ddot": 0,
        "tle_line1": "1 34540U 97051JH  25346.18069799  .00016729  00000+0  24579-2 0  9990",
        "tle_line2": "2 34540  86.3104 307.8626 0016323 161.1064 212.9311 14.75303898890134"
      },
      "geometry": {
        "type": "Point",
        "coordinates": [
          131.3328457262936,
          -46.897003262036826
        ]
      }
    },
    {
      "type": "Feature",
      "properties": {
        "norad_id": 34648,
        "name": "IRIDIUM 33 DEB",
        "group": "iridium-33-debris",
        "lat": -77.3771657016488,
        "lon": 118.11699131151497,
        "alt_km": 758.4574934962657,
        "timestamp": "2025-12-13T05:42:57.956246+00:00",
        "meta_object_name": "IRIDIUM 33 DEB",
        "meta_object_id": "1997-051JZ",
        "meta_epoch": "2025-12-11T13:21:05.102784",
        "meta_mean_motion": 14.11443671,
        "meta_eccentricity": 0.01830215,
        "meta_inclination": 86.3904,
        "meta_ra_of_asc_node": 282.4242,
        "meta_arg_of_pericenter": 302.6046,
        "meta_mean_anomaly": 55.7583,
        "meta_ephemeris_type": 0,
        "meta_classification_type": "U",
        "meta_norad_cat_id": 34648,
        "meta_element_set_no": 999,
        "meta_rev_at_epoch": 84944,
        "meta_bstar": 0.011270699,
        "meta_mean_motion_dot": 0.00023967,
        "meta_mean_motion_ddot": 0,
        "tle_line1": "1 34648U 97051JZ  25345.55630906  .00023967  00000+0  11271-1 0  9999",
        "tle_line2": "2 34648  86.3904 282.4242 0183021 302.6046  55.7583 14.11443671849441"
      },
      "geometry": {
        "type": "Point",
        "coordinates": [
          118.11699131151497,
          -77.3771657016488
        ]
      }
    },
    {
      "type": "Feature",
      "properties": {
        "norad_id": 34651,
        "name": "IRIDIUM 33 DEB",
        "group": "iridium-33-debris",
        "lat": -16.45034562314293,
        "lon": 139.2656643419091,
        "alt_km": 889.6526268286743,
        "timestamp": "2025-12-13T05:42:57.956256+00:00",
        "meta_object_name": "IRIDIUM 33 DEB",
        "meta_object_id": "1997-051KC",
        "meta_epoch": "2025-12-11T10:00:09.377280",
        "meta_mean_motion": 14.25785902,
        "meta_eccentricity": 0.01420766,
        "meta_inclination": 86.2836,
        "meta_ra_of_asc_node": 141.1401,
        "meta_arg_of_pericenter": 208.1446,
        "meta_mean_anomaly": 151.2016,
        "meta_ephemeris_type": 0,
        "meta_classification_type": "U",
        "meta_norad_cat_id": 34651,
        "meta_element_set_no": 999,
        "meta_rev_at_epoch": 85877,
        "meta_bstar": 0.0064804536,
        "meta_mean_motion_dot": 0.00017162,
        "meta_mean_motion_ddot": 0,
        "tle_line1": "1 34651U 97051KC  25345.41677520  .00017162  00000+0  64805-2 0  9993",
        "tle_line2": "2 34651  86.2836 141.1401 0142076 208.1446 151.2016 14.25785902858775"
      },
      "geometry": {
        "type": "Point",
        "coordinates": [
          139.2656643419091,
          -16.45034562314293
        ]
      }
    },
    {
      "type": "Feature",
      "properties": {
        "norad_id": 34652,
        "name": "IRIDIUM 33 DEB",
        "group": "iridium-33-debris",
        "lat": 80.57893776837514,
        "lon": 137.03361593398057,
        "alt_km": 696.6201513275755,
        "timestamp": "2025-12-13T05:42:57.956267+00:00",
        "meta_object_name": "IRIDIUM 33 DEB",
        "meta_object_id": "1997-051KD",
        "meta_epoch": "2025-12-11T23:57:08.973792",
        "meta_mean_motion": 14.62047586,
        "meta_eccentricity": 0.0025954,
        "meta_inclination": 86.3316,
        "meta_ra_of_asc_node": 340.3318,
        "meta_arg_of_pericenter": 300.945,
        "meta_mean_anomaly": 114.4446,
        "meta_ephemeris_type": 0,
        "meta_classification_type": "U",
        "meta_norad_cat_id": 34652,
        "meta_element_set_no": 999,
        "meta_rev_at_epoch": 88473,
        "meta_bstar": 0.0015132,
        "meta_mean_motion_dot": 7.652e-05,
        "meta_mean_motion_ddot": 0,
        "tle_line1": "1 34652U 97051KD  25345.99802053  .00007652  00000+0  15132-2 0  9990",
        "tle_line2": "2 34652  86.3316 340.3318 0025954 300.9450 114.4446 14.62047586884734"
      },
      "geometry": {
        "type": "Point",
        "coordinates": [
          137.03361593398057,
          80.57893776837514
        ]
      }
    },
    {
      "type": "Feature",
      "properties": {
        "norad_id": 34690,
        "name": "IRIDIUM 33 DEB",
        "group": "iridium-33-debris",
        "lat": -51.11519988525323,
        "lon": 32.2699684987477,
        "alt_km": 714.5035848802745,
        "timestamp": "2025-12-13T05:42:57.956278+00:00",
        "meta_object_name": "IRIDIUM 33 DEB",
        "meta_object_id": "1997-051KM",
        "meta_epoch": "2025-12-11T02:55:05.414016",
        "meta_mean_motion": 14.5508579,
        "meta_eccentricity": 0.00110418,
        "meta_inclination": 86.378,
        "meta_ra_of_asc_node": 37.6945,
        "meta_arg_of_pericenter": 34.4543,
        "meta_mean_anomaly": 354.2887,
        "meta_ephemeris_type": 0,
        "meta_classification_type": "U",
        "meta_norad_cat_id": 34690,
        "meta_element_set_no": 999,
        "meta_rev_at_epoch": 88071,
        "meta_bstar": 0.00065168739,
        "meta_mean_motion_dot": 2.833e-05,
        "meta_mean_motion_ddot": 0,
        "tle_line1": "1 34690U 97051KM  25345.12159044  .00002833  00000+0  65169-3 0  9994",
        "tle_line2": "2 34690  86.3780  37.6945 0011041  34.4543 354.2887 14.55085790880715"
      },
      "geometry": {
        "type": "Point",
        "coordinates": [
          32.2699684987477,
          -51.11519988525323
        ]
      }
    },
    {
      "type": "Feature",
      "properties": {
        "norad_id": 34693,
        "name": "IRIDIUM 33 DEB",
        "group": "iridium-33-debris",
        "lat": 52.086005557762746,
        "lon": 118.81796354125427,
        "alt_km": 474.93143208729543,
        "timestamp": "2025-12-13T05:42:57.956289+00:00",
        "meta_object_name": "IRIDIUM 33 DEB",
        "meta_object_id": "1997-051KQ",
        "meta_epoch": "2025-12-12T04:16:22.304352",
        "meta_mean_motion": 15.27707686,
        "meta_eccentricity": 0.00140311,
        "meta_inclination": 86.3049,
        "meta_ra_of_asc_node": 304.1041,
        "meta_arg_of_pericenter": 54.1039,
        "meta_mean_anomaly": 6.3435,
        "meta_ephemeris_type": 0,
        "meta_classification_type": "U",
        "meta_norad_cat_id": 34693,
        "meta_element_set_no": 999,
        "meta_rev_at_epoch": 88906,
        "meta_bstar": 0.0056019513,
        "meta_mean_motion_dot": 0.00154909,
        "meta_mean_motion_ddot": 0,
        "tle_line1": "1 34693U 97051KQ  25346.17803593  .00154909  00000+0  56020-2 0  9995",
        "tle_line2": "2 34693  86.3049 304.1041 0014031  54.1039   6.3435 15.27707686889062"
      },
      "geometry": {
        "type": "Point",
        "coordinates": [
          118.81796354125427,
          52.086005557762746
        ]
      }
    },
    {
      "type": "Feature",
      "properties": {
        "norad_id": 34696,
        "name": "IRIDIUM 33 DEB",
        "group": "iridium-33-debris",
        "lat": 74.99068342846205,
        "lon": -167.11995277786826,
        "alt_km": 644.1912560432729,
        "timestamp": "2025-12-13T05:42:57.956300+00:00",
        "meta_object_name": "IRIDIUM 33 DEB",
        "meta_object_id": "1997-051KT",
        "meta_epoch": "2025-12-11T02:33:26.982720",
        "meta_mean_motion": 14.64953116,
        "meta_eccentricity": 0.00741481,
        "meta_inclination": 86.185,
        "meta_ra_of_asc_node": 28.2818,
        "meta_arg_of_pericenter": 173.0229,
        "meta_mean_anomaly": 217.0787,
        "meta_ephemeris_type": 0,
        "meta_classification_type": "U",
        "meta_norad_cat_id": 34696,
        "meta_element_set_no": 999,
        "meta_rev_at_epoch": 86649,
        "meta_bstar": 0.0075396538,
        "meta_mean_motion_dot": 0.00042238,
        "meta_mean_motion_ddot": 0,
        "tle_line1": "1 34696U 97051KT  25345.10656230  .00042238  00000+0  75397-2 0  9993",
        "tle_line2": "2 34696  86.1850  28.2818 0074148 173.0229 217.0787 14.64953116866490"
      },
      "geometry": {
        "type": "Point",
        "coordinates": [
          -167.11995277786826,
          74.99068342846205
        ]
      }
    }
  ]
}